{
  "norad_id": 66454,
  "name": "VIASAT-3 F2",
  "history": [
    {
      "epoch": "2026-05-02T19:46:48.041760Z",
      "apogee_km": 35796.70594473316,
      "perigee_km": 35777.71635853959,
      "latitude_deg": -0.0001723515250351699,
      "longitude_deg": -78.98389367525071,
      "height_km": 35780.252167616774,
      "semi_major_axis_km": 42165.34815163638,
      "eccentricity": 0.00022518,
      "inclination_deg": 0.0208,
      "raan_deg": 61.2547,
      "arg_perigee_deg": 64.2101,
      "mean_anomaly_deg": 313.0124,
      "mean_motion_rev_day": 1.00269587
    },
    {
      "epoch": "2026-05-04T08:24:38.822976Z",
      "apogee_km": 35795.36436668526,
      "perigee_km": 35776.719366790385,
      "latitude_deg": 0.010980679400520204,
      "longitude_deg": -78.94755035597481,
      "height_km": 35793.37684115331,
      "semi_major_axis_km": 42164.17886673782,
      "eccentricity": 0.0002211,
      "inclination_deg": 0.0124,
      "raan_deg": 221.8107,
      "arg_perigee_deg": 260.0447,
      "mean_anomaly_deg": 147.5929,
      "mean_motion_rev_day": 1.00273758
    },
    {
      "epoch": "2026-05-06T05:55:14.702016Z",
      "apogee_km": 35795.63829853572,
      "perigee_km": 35777.11374138553,
      "latitude_deg": -0.02172677559124996,
      "longitude_deg": -78.93353900710434,
      "height_km": 35789.64407383472,
      "semi_major_axis_km": 42164.51301996063,
      "eccentricity": 0.00021967,
      "inclination_deg": 0.0493,
      "raan_deg": 245.3112,
      "arg_perigee_deg": 234.6689,
      "mean_anomaly_deg": 113.9917,
      "mean_motion_rev_day": 1.00272566
    },
    {
      "epoch": "2026-05-07T10:51:58.451904Z",
      "apogee_km": 35795.942867568585,
      "perigee_km": 35776.808611687346,
      "latitude_deg": 0.06231853787376972,
      "longitude_deg": -78.95614713146631,
      "height_km": 35795.27960304833,
      "semi_major_axis_km": 42164.51273962797,
      "eccentricity": 0.0002269,
      "inclination_deg": 0.0588,
      "raan_deg": 246.7103,
      "arg_perigee_deg": 233.9665,
      "mean_anomaly_deg": 188.6706,
      "mean_motion_rev_day": 1.00272567
    },
    {
      "epoch": "2026-05-08T19:31:13.440000Z",
      "apogee_km": 35788.50897237717,
      "perigee_km": 35784.25035619408,
      "latitude_deg": -0.011117206200119757,
      "longitude_deg": -78.94716141376571,
      "height_km": 35783.77328756118,
      "semi_major_axis_km": 42164.51666428563,
      "eccentricity": 5.05e-05,
      "inclination_deg": 0.0557,
      "raan_deg": 245.6172,
      "arg_perigee_deg": 184.3309,
      "mean_anomaly_deg": 10.5576,
      "mean_motion_rev_day": 1.00272553
    },
    {
      "epoch": "2026-05-09T19:28:37.843104Z",
      "apogee_km": 35788.657993918285,
      "perigee_km": 35784.702934040164,
      "latitude_deg": -0.012797957815549333,
      "longitude_deg": -78.94961078140255,
      "height_km": 35784.21189159077,
      "semi_major_axis_km": 42164.81746397923,
      "eccentricity": 4.69e-05,
      "inclination_deg": 0.0536,
      "raan_deg": 244.7515,
      "arg_perigee_deg": 187.7621,
      "mean_anomaly_deg": 8.3267,
      "mean_motion_rev_day": 1.0027148
    },
    {
      "epoch": "2026-05-10T19:25:57.255744Z",
      "apogee_km": 35788.73523646517,
      "perigee_km": 35784.88136046488,
      "latitude_deg": -0.014172992775250528,
      "longitude_deg": -78.95392117384905,
      "height_km": 35784.3714703688,
      "semi_major_axis_km": 42164.94529846503,
      "eccentricity": 4.57e-05,
      "inclination_deg": 0.0514,
      "raan_deg": 243.9009,
      "arg_perigee_deg": 198.131,
      "mean_anomaly_deg": 359.1213,
      "mean_motion_rev_day": 1.00271024
    },
    {
      "epoch": "2026-05-11T19:23:17.704320Z",
      "apogee_km": 35788.81417299143,
      "perigee_km": 35785.05304869294,
      "latitude_deg": -0.014946279188361883,
      "longitude_deg": -78.95969447537556,
      "height_km": 35784.56336711185,
      "semi_major_axis_km": 42165.07061084219,
      "eccentricity": 4.46e-05,
      "inclination_deg": 0.0491,
      "raan_deg": 243.0961,
      "arg_perigee_deg": 206.5423,
      "mean_anomaly_deg": 351.8306,
      "mean_motion_rev_day": 1.00270577
    },
    {
      "epoch": "2026-05-12T19:20:38.665248Z",
      "apogee_km": 35788.8869862145,
      "perigee_km": 35784.97406794798,
      "latitude_deg": -0.014976091081055175,
      "longitude_deg": -78.96350875118718,
      "height_km": 35784.485469438965,
      "semi_major_axis_km": 42165.06752708124,
      "eccentricity": 4.64e-05,
      "inclination_deg": 0.047,
      "raan_deg": 242.3505,
      "arg_perigee_deg": 207.6946,
      "mean_anomaly_deg": 351.7431,
      "mean_motion_rev_day": 1.00270588
    },
    {
      "epoch": "2026-05-13T19:17:55.237056Z",
      "apogee_km": 35789.114017875865,
      "perigee_km": 35785.032425526406,
      "latitude_deg": -0.014203047694922427,
      "longitude_deg": -78.97076481516675,
      "height_km": 35784.62416923208,
      "semi_major_axis_km": 42165.210221701134,
      "eccentricity": 4.84e-05,
      "inclination_deg": 0.0448,
      "raan_deg": 241.4531,
      "arg_perigee_deg": 218.5826,
      "mean_anomaly_deg": 342.0503,
      "mean_motion_rev_day": 1.00270079
    },
    {
      "epoch": "2026-05-14T05:34:00.712416Z",
      "apogee_km": 35789.08927128538,
      "perigee_km": 35785.17043138422,
      "latitude_deg": -0.014678507471199562,
      "longitude_deg": -78.96877493679158,
      "height_km": 35788.01864155233,
      "semi_major_axis_km": 42165.2668513348,
      "eccentricity": 4.647e-05,
      "inclination_deg": 0.0439,
      "raan_deg": 241.0833,
      "arg_perigee_deg": 220.1516,
      "mean_anomaly_deg": 135.2925,
      "mean_motion_rev_day": 1.00269877
    },
    {
      "epoch": "2026-05-15T05:31:22.876032Z",
      "apogee_km": 35789.14956044334,
      "perigee_km": 35785.327690796636,
      "latitude_deg": -0.015074548966406332,
      "longitude_deg": -78.97495821041969,
      "height_km": 35787.93281716733,
      "semi_major_axis_km": 42165.37562561999,
      "eccentricity": 4.532e-05,
      "inclination_deg": 0.0417,
      "raan_deg": 239.8923,
      "arg_perigee_deg": 228.1204,
      "mean_anomaly_deg": 128.8342,
      "mean_motion_rev_day": 1.00269489
    },
    {
      "epoch": "2026-05-16T19:10:03.526752Z",
      "apogee_km": 35789.09544121754,
      "perigee_km": 35785.70533201166,
      "latitude_deg": -0.008683636893723059,
      "longitude_deg": -78.99167230171751,
      "height_km": 35785.45249728868,
      "semi_major_axis_km": 42165.537386614604,
      "eccentricity": 4.02e-05,
      "inclination_deg": 0.0385,
      "raan_deg": 237.3641,
      "arg_perigee_deg": 237.5303,
      "mean_anomaly_deg": 328.1545,
      "mean_motion_rev_day": 1.00268912
    }
  ]
}